STARLINK-36215          
1 67100U 25298AB  25364.25002315 -.01736723  00000+0 -22231-1 0  9999
2 67100  69.9993 200.2606 0003489 276.7261 263.2133 15.61893296  3791
STARLINK-36200          
1 67101U 25298AC  25364.25002315 -.01734705  00000+0 -22206-1 0  9990
2 67101  69.9992 200.2659 0003613 274.3680 261.7833 15.61887015  3799
STARLINK-36255          
1 67102U 25299A   25364.25002315 -.01989855  00000+0 -23847-1 0  9992
2 67102  42.9992 209.7281 0001367 271.4561 224.3418 15.63415008  3623
STARLINK-36256          
1 67103U 25299B   25364.25002315 -.01985459  00000+0 -23771-1 0  9995
2 67103  42.9992 209.7245 0001383 267.9350 229.5491 15.63431804  3628
STARLINK-36258          
1 67104U 25299C   25364.25002315 -.01991201  00000+0 -23831-1 0  9995
2 67104  42.9993 209.7195 0001411 270.8082 228.4244 15.63450373  3627
STARLINK-36261          
1 67105U 25299D   25364.25002315 -.01987764  00000+0 -23763-1 0  9999
2 67105  42.9992 209.7156 0001392 269.2470 231.6405 15.63472955  3620
STARLINK-36259          
1 67106U 25299E   25364.25002315 -.01990216  00000+0 -23775-1 0  9999
2 67106  42.9992 209.7065 0001426 268.9529 235.5505 15.63495859  3621
STARLINK-36196          
1 67107U 25299F   25364.25002315 -.01991704  00000+0 -23802-1 0  9994
2 67107  42.9991 209.7114 0001415 268.2017 234.4623 15.63488486  3626
STARLINK-36208          
1 67108U 25299G   25364.25002315 -.01989657  00000+0 -23761-1 0  9993
2 67108  42.9990 209.7016 0001441 267.8933 238.4498 15.63501560  3621
STARLINK-35764          
1 67109U 25299H   25364.25002315 -.01989554  00000+0 -23758-1 0  9996
2 67109  42.9992 209.6975 0001400 268.7444 239.4883 15.63504319  3511
STARLINK-35781          
1 67110U 25299J   25364.25002315 -.01986505  00000+0 -23710-1 0  9999
2 67110  42.9991 209.6878 0001355 266.7529 245.2119 15.63511901  3573
STARLINK-35875          
1 67111U 25299K   25364.25002315 -.01987524  00000+0 -23728-1 0  9991
2 67111  42.9991 209.6927 0001437 268.6504 241.4677 15.63506300  3512
