CCSDS_OMM_VERS = 2.0
CREATION_DATE  = 
ORIGINATOR     = 

OBJECT_NAME    = STARLINK-36215
OBJECT_ID      = 2025-298AB
CENTER_NAME    = EARTH
REF_FRAME      = TEME
TIME_SYSTEM    = UTC
MEAN_ELEMENT_THEORY = SGP/SGP4

EPOCH          = 2025-12-30T06:00:02.000160
MEAN_MOTION    = 15.61893296
ECCENTRICITY   = .00034892
INCLINATION    = 69.9993
RA_OF_ASC_NODE = 200.2606
ARG_OF_PERICENTER = 276.7261
MEAN_ANOMALY   = 263.2133

EPHEMERIS_TYPE = 0
CLASSIFICATION_TYPE = U
NORAD_CAT_ID   = 67100
ELEMENT_SET_NO = 999
REV_AT_EPOCH   = 379
BSTAR          = -.22231101E-1
MEAN_MOTION_DOT = -.1736723E-1
MEAN_MOTION_DDOT = 0

CCSDS_OMM_VERS = 2.0
CREATION_DATE  = 
ORIGINATOR     = 

OBJECT_NAME    = STARLINK-36200
OBJECT_ID      = 2025-298AC
CENTER_NAME    = EARTH
REF_FRAME      = TEME
TIME_SYSTEM    = UTC
MEAN_ELEMENT_THEORY = SGP/SGP4

EPOCH          = 2025-12-30T06:00:02.000160
MEAN_MOTION    = 15.61887015
ECCENTRICITY   = .00036137
INCLINATION    = 69.9992
RA_OF_ASC_NODE = 200.2659
ARG_OF_PERICENTER = 274.3680
MEAN_ANOMALY   = 261.7833

EPHEMERIS_TYPE = 0
CLASSIFICATION_TYPE = U
NORAD_CAT_ID   = 67101
ELEMENT_SET_NO = 999
REV_AT_EPOCH   = 379
BSTAR          = -.2220641E-1
MEAN_MOTION_DOT = -.1734705E-1
MEAN_MOTION_DDOT = 0

CCSDS_OMM_VERS = 2.0
CREATION_DATE  = 
ORIGINATOR     = 

OBJECT_NAME    = STARLINK-36255
OBJECT_ID      = 2025-299A
CENTER_NAME    = EARTH
REF_FRAME      = TEME
TIME_SYSTEM    = UTC
MEAN_ELEMENT_THEORY = SGP/SGP4

EPOCH          = 2025-12-30T06:00:02.000160
MEAN_MOTION    = 15.63415008
ECCENTRICITY   = .00013676
INCLINATION    = 42.9992
RA_OF_ASC_NODE = 209.7281
ARG_OF_PERICENTER = 271.4561
MEAN_ANOMALY   = 224.3418

EPHEMERIS_TYPE = 0
CLASSIFICATION_TYPE = U
NORAD_CAT_ID   = 67102
ELEMENT_SET_NO = 999
REV_AT_EPOCH   = 362
BSTAR          = -.23846944E-1
MEAN_MOTION_DOT = -.1989855E-1
MEAN_MOTION_DDOT = 0

CCSDS_OMM_VERS = 2.0
CREATION_DATE  = 
ORIGINATOR     = 

OBJECT_NAME    = STARLINK-36256
OBJECT_ID      = 2025-299B
CENTER_NAME    = EARTH
REF_FRAME      = TEME
TIME_SYSTEM    = UTC
MEAN_ELEMENT_THEORY = SGP/SGP4

EPOCH          = 2025-12-30T06:00:02.000160
MEAN_MOTION    = 15.63431804
ECCENTRICITY   = .00013832
INCLINATION    = 42.9992
RA_OF_ASC_NODE = 209.7245
ARG_OF_PERICENTER = 267.9350
MEAN_ANOMALY   = 229.5491

EPHEMERIS_TYPE = 0
CLASSIFICATION_TYPE = U
NORAD_CAT_ID   = 67103
ELEMENT_SET_NO = 999
REV_AT_EPOCH   = 362
BSTAR          = -.23770888E-1
MEAN_MOTION_DOT = -.1985459E-1
MEAN_MOTION_DDOT = 0

CCSDS_OMM_VERS = 2.0
CREATION_DATE  = 
ORIGINATOR     = 

OBJECT_NAME    = STARLINK-36258
OBJECT_ID      = 2025-299C
CENTER_NAME    = EARTH
REF_FRAME      = TEME
TIME_SYSTEM    = UTC
MEAN_ELEMENT_THEORY = SGP/SGP4

EPOCH          = 2025-12-30T06:00:02.000160
MEAN_MOTION    = 15.63450373
ECCENTRICITY   = .00014112
INCLINATION    = 42.9993
RA_OF_ASC_NODE = 209.7195
ARG_OF_PERICENTER = 270.8082
MEAN_ANOMALY   = 228.4244

EPHEMERIS_TYPE = 0
CLASSIFICATION_TYPE = U
NORAD_CAT_ID   = 67104
ELEMENT_SET_NO = 999
REV_AT_EPOCH   = 362
BSTAR          = -.2383128E-1
MEAN_MOTION_DOT = -.1991201E-1
MEAN_MOTION_DDOT = 0

CCSDS_OMM_VERS = 2.0
CREATION_DATE  = 
ORIGINATOR     = 

OBJECT_NAME    = STARLINK-36261
OBJECT_ID      = 2025-299D
CENTER_NAME    = EARTH
REF_FRAME      = TEME
TIME_SYSTEM    = UTC
MEAN_ELEMENT_THEORY = SGP/SGP4

EPOCH          = 2025-12-30T06:00:02.000160
MEAN_MOTION    = 15.63472955
ECCENTRICITY   = .00013926
INCLINATION    = 42.9992
RA_OF_ASC_NODE = 209.7156
ARG_OF_PERICENTER = 269.2470
MEAN_ANOMALY   = 231.6405

EPHEMERIS_TYPE = 0
CLASSIFICATION_TYPE = U
NORAD_CAT_ID   = 67105
ELEMENT_SET_NO = 999
REV_AT_EPOCH   = 362
BSTAR          = -.23763225E-1
MEAN_MOTION_DOT = -.1987764E-1
MEAN_MOTION_DDOT = 0

CCSDS_OMM_VERS = 2.0
CREATION_DATE  = 
ORIGINATOR     = 

OBJECT_NAME    = STARLINK-36259
OBJECT_ID      = 2025-299E
CENTER_NAME    = EARTH
REF_FRAME      = TEME
TIME_SYSTEM    = UTC
MEAN_ELEMENT_THEORY = SGP/SGP4

EPOCH          = 2025-12-30T06:00:02.000160
MEAN_MOTION    = 15.63495859
ECCENTRICITY   = .00014267
INCLINATION    = 42.9992
RA_OF_ASC_NODE = 209.7065
ARG_OF_PERICENTER = 268.9529
MEAN_ANOMALY   = 235.5505

EPHEMERIS_TYPE = 0
CLASSIFICATION_TYPE = U
NORAD_CAT_ID   = 67106
ELEMENT_SET_NO = 999
REV_AT_EPOCH   = 362
BSTAR          = -.23774548E-1
MEAN_MOTION_DOT = -.1990216E-1
MEAN_MOTION_DDOT = 0

CCSDS_OMM_VERS = 2.0
CREATION_DATE  = 
ORIGINATOR     = 

OBJECT_NAME    = STARLINK-36196
OBJECT_ID      = 2025-299F
CENTER_NAME    = EARTH
REF_FRAME      = TEME
TIME_SYSTEM    = UTC
MEAN_ELEMENT_THEORY = SGP/SGP4

EPOCH          = 2025-12-30T06:00:02.000160
MEAN_MOTION    = 15.63488486
ECCENTRICITY   = .00014151
INCLINATION    = 42.9991
RA_OF_ASC_NODE = 209.7114
ARG_OF_PERICENTER = 268.2017
MEAN_ANOMALY   = 234.4623

EPHEMERIS_TYPE = 0
CLASSIFICATION_TYPE = U
NORAD_CAT_ID   = 67107
ELEMENT_SET_NO = 999
REV_AT_EPOCH   = 362
BSTAR          = -.23801914E-1
MEAN_MOTION_DOT = -.1991704E-1
MEAN_MOTION_DDOT = 0

CCSDS_OMM_VERS = 2.0
CREATION_DATE  = 
ORIGINATOR     = 

OBJECT_NAME    = STARLINK-36208
OBJECT_ID      = 2025-299G
CENTER_NAME    = EARTH
REF_FRAME      = TEME
TIME_SYSTEM    = UTC
MEAN_ELEMENT_THEORY = SGP/SGP4

EPOCH          = 2025-12-30T06:00:02.000160
MEAN_MOTION    = 15.63501560
ECCENTRICITY   = .00014412
INCLINATION    = 42.9990
RA_OF_ASC_NODE = 209.7016
ARG_OF_PERICENTER = 267.8933
MEAN_ANOMALY   = 238.4498

EPHEMERIS_TYPE = 0
CLASSIFICATION_TYPE = U
NORAD_CAT_ID   = 67108
ELEMENT_SET_NO = 999
REV_AT_EPOCH   = 362
BSTAR          = -.23761395E-1
MEAN_MOTION_DOT = -.1989657E-1
MEAN_MOTION_DDOT = 0

CCSDS_OMM_VERS = 2.0
CREATION_DATE  = 
ORIGINATOR     = 

OBJECT_NAME    = STARLINK-35764
OBJECT_ID      = 2025-299H
CENTER_NAME    = EARTH
REF_FRAME      = TEME
TIME_SYSTEM    = UTC
MEAN_ELEMENT_THEORY = SGP/SGP4

EPOCH          = 2025-12-30T06:00:02.000160
MEAN_MOTION    = 15.63504319
ECCENTRICITY   = .00014002
INCLINATION    = 42.9992
RA_OF_ASC_NODE = 209.6975
ARG_OF_PERICENTER = 268.7444
MEAN_ANOMALY   = 239.4883

EPHEMERIS_TYPE = 0
CLASSIFICATION_TYPE = U
NORAD_CAT_ID   = 67109
ELEMENT_SET_NO = 999
REV_AT_EPOCH   = 351
BSTAR          = -.23757807E-1
MEAN_MOTION_DOT = -.1989554E-1
MEAN_MOTION_DDOT = 0

CCSDS_OMM_VERS = 2.0
CREATION_DATE  = 
ORIGINATOR     = 

OBJECT_NAME    = STARLINK-35781
OBJECT_ID      = 2025-299J
CENTER_NAME    = EARTH
REF_FRAME      = TEME
TIME_SYSTEM    = UTC
MEAN_ELEMENT_THEORY = SGP/SGP4

EPOCH          = 2025-12-30T06:00:02.000160
MEAN_MOTION    = 15.63511901
ECCENTRICITY   = .00013554
INCLINATION    = 42.9991
RA_OF_ASC_NODE = 209.6878
ARG_OF_PERICENTER = 266.7529
MEAN_ANOMALY   = 245.2119

EPHEMERIS_TYPE = 0
CLASSIFICATION_TYPE = U
NORAD_CAT_ID   = 67110
ELEMENT_SET_NO = 999
REV_AT_EPOCH   = 357
BSTAR          = -.23709624E-1
MEAN_MOTION_DOT = -.1986505E-1
MEAN_MOTION_DDOT = 0

CCSDS_OMM_VERS = 2.0
CREATION_DATE  = 
ORIGINATOR     = 

OBJECT_NAME    = STARLINK-35875
OBJECT_ID      = 2025-299K
CENTER_NAME    = EARTH
REF_FRAME      = TEME
TIME_SYSTEM    = UTC
MEAN_ELEMENT_THEORY = SGP/SGP4

EPOCH          = 2025-12-30T06:00:02.000160
MEAN_MOTION    = 15.63506300
ECCENTRICITY   = .00014375
INCLINATION    = 42.9991
RA_OF_ASC_NODE = 209.6927
ARG_OF_PERICENTER = 268.6504
MEAN_ANOMALY   = 241.4677

EPHEMERIS_TYPE = 0
CLASSIFICATION_TYPE = U
NORAD_CAT_ID   = 67111
ELEMENT_SET_NO = 999
REV_AT_EPOCH   = 351
BSTAR          = -.23727947E-1
MEAN_MOTION_DOT = -.1987524E-1
MEAN_MOTION_DDOT = 0

